STARLINK-3645           
1 51986U 22025AG  22088.58334491  .00018055  00000+0  13312-3 0  9998
2 51986  53.2191  40.6567 0001193 102.1607  95.4153 15.73139650  3382
STARLINK-3644           
1 51987U 22025AH  22088.58334491  .00042328  00000+0  30505-3 0  9992
2 51987  53.2187  40.6612 0001008 110.7502  84.2340 15.73156619  3381
STARLINK-3640           
1 51988U 22025AJ  22088.58334491  .00041540  00000+0  29991-3 0  9995
2 51988  53.2192  40.6555 0001066 107.3100  90.8679 15.73123150  3386
STARLINK-3642           
1 51989U 22025AK  22088.58334491  .00041490  00000+0  29916-3 0  9997
2 51989  53.2188  40.6600 0000845  84.4889 111.1391 15.73154012  3385
STARLINK-3657           
1 51990U 22025AL  22088.58334491  .00022020  00000+0  16130-3 0  9991
2 51990  53.2192  40.6530 0001250  91.0453 108.4557 15.73141700  3389
STARLINK-3652           
1 51991U 22025AM  22088.58334491  .00040164  00000+0  28996-3 0  9994
2 51991  53.2188  40.6572 0001117  87.8492 109.0748 15.73139898  3383
STARLINK-3643           
1 51992U 22025AN  22088.58334491  .00040444  00000+0  29191-3 0  9994
2 51992  53.2191  40.6490 0000920 103.9112  97.4814 15.73142522  3389
STARLINK-3648           
1 51993U 22025AP  22088.58334491 -.00013995  00000+0 -95606-4 0  9993
2 51993  53.2187  40.6532 0001163  86.2327 112.6012 15.73166535  3383
STARLINK-3647           
1 51994U 22025AQ  22088.58334491  .00040970  00000+0  29582-3 0  9994
2 51994  53.2193  40.6483 0001345  95.2692 106.7497 15.73127634  4438
STARLINK-3636           
1 51995U 22025AR  22088.58334491 -.00049992  00000+0 -35389-3 0  9992
2 51995  53.2182  40.6518 0000962  96.6755 103.4549 15.73201363  3382
STARLINK-3538           
1 51996U 22025AS  22088.58334491  .00041196  00000+0  29704-3 0  9993
2 51996  53.2193  40.6465 0000907  84.8264 117.8522 15.73157709  3383
STARLINK-3589           
1 51997U 22025AT  22088.58334491  .00038364  00000+0  27717-3 0  9999
2 51997  53.2189  40.6499 0000989 101.2010  99.5425 15.73144457  3383
STARLINK-3618           
1 51998U 22025AU  22088.58334491  .00041396  00000+0  29854-3 0  9993
2 51998  53.2195  40.6444 0000959  94.3393 109.6098 15.73150910  3384
STARLINK-3667           
1 51999U 22025AV  22088.58334491 -.00072461  00000+0 -51670-3 0  9994
2 51999  53.2190  40.6448 0001285  87.7499 115.5456 15.73183080  3388
STARLINK-3653           
1 52000U 22025AW  22088.58334491  .00014642  00000+0  10891-3 0  9993
2 52000  53.2194  40.6418 0001357  99.8552 105.4075 15.73123170  3386
STARLINK-3659           
1 52001U 22025AX  22088.58334491 -.00065926  00000+0 -46944-3 0  9995
2 52001  53.2190  40.6421 0001048  97.9510 106.6469 15.73178704  3380
STARLINK-3668           
1 52002U 22025AY  22088.58334491  .00040349  00000+0  29129-3 0  9992
2 52002  53.2193  40.6408 0001107  99.7191 106.1540 15.73138596  3380
STARLINK-3654           
1 52003U 22025AZ  22088.58334491 -.00047010  00000+0 -33301-3 0  9994
2 52003  53.2192  40.6384 0001246  84.5973 121.9157 15.73157906  3382
FALCON 9 DEB            
1 52004U 22025BA  22088.15679077  .00298523  45895-4  76825-3 0  9999
2 52004  53.2282  41.1898 0005077 290.1696  69.8787 15.94728428  3286
FALCON 9 DEB            
1 52005U 22025BB  22088.58776504  .00341456  57751-4  81362-3 0  9990
2 52005  53.2244  38.8911 0005821 263.4558  96.5810 15.96118554  3358
FALCON 9 DEB            
1 52006U 22025BC  22088.57249716  .00322060  53190-4  71630-3 0  9990
2 52006  53.2218  38.7776 0009014 287.6600  72.3446 15.97333937  3354
FALCON 9 DEB            
1 52007U 22025BD  22088.57005193  .00309332  49830-4  69005-3 0  9996
2 52007  53.2198  38.7581 0009854 272.2011  87.7891 15.97271498  3351
2022-026A               
1 52008U 22026A   22088.56014817  .00010658  00000+0  49265-3 0  9997
2 52008  97.4875  89.6096 0047966 223.0567 136.6912 15.19311466  2111
SPACEBEE-121            
1 52009U 22026B   22088.54465261  .00009550  00000+0  52726-3 0  9994
2 52009  97.5024  89.4956 0028134 186.1978 173.8909 15.13800287  2097
SPACEBEE-114            
1 52010U 22026C   22088.54518813  .00009262  00000+0  51264-3 0  9994
2 52010  97.5040  89.4957 0027451 188.8286 171.2466 15.13739176  2100
SPACEBEE-126            
1 52011U 22026D   22082.46363030 -.00000067  00000+0  00000+0 0  9992
2 52011  97.5007  83.5048 0026866 207.5582 152.4339 15.13572263  1175
SPACEBEE-118            
1 52012U 22026E   22088.54480413  .00010944  00000+0  60411-3 0  9993
2 52012  97.5041  89.4976 0026876 190.0370 170.0329 15.13800260  2101
SPACEBEE-120            
1 52013U 22026F   22088.54468736  .00010893  00000+0  60037-3 0  9995
2 52013  97.5024  89.4950 0028944 183.7427 176.3592 15.13806233  2090
SPACEBEE-122            
1 52014U 22026G   22088.54469381  .00009482  00000+0  52349-3 0  9992
2 52014  97.5028  89.4952 0028027 187.4488 172.6332 15.13806052  2097
SPACEBEE-119            
1 52015U 22026H   22088.54463927  .00009399  00000+0  51894-3 0  9994
2 52015  97.5039  89.4965 0028327 186.2234 173.8650 15.13799184  2096
2022-026J               
1 52016U 22026J   22088.28020373  .00010303  00000+0  56854-3 0  9998
2 52016  97.5028  89.2350 0028055 187.4228 172.6593 15.13801680  2059
2022-026K               
1 52017U 22026K   22087.75158909  .00007251  00000+0  40212-3 0  9996
2 52017  97.5027  88.7140 0027859 189.4018 170.6696 15.13740646  1976
2022-026L               
1 52018U 22026L   22088.54433954  .00014342  00000+0  78811-3 0  9996
2 52018  97.5052  89.4981 0028001 186.8690 173.2162 15.13866011  2099
SPACEBEENZ-11           
1 52019U 22026M   22088.54434680  .00012293  00000+0  67621-3 0  9994
2 52019  97.5036  89.4965 0028189 186.4365 173.6509 15.13864095  2051
2022-026N               
1 52020U 22026N   22088.54461400  .00009527  00000+0  52601-3 0  9994
2 52020  97.5030  89.4957 0028008 186.5691 173.5178 15.13803882  2048
SPACEBEE-125            
1 52021U 22026P   22088.47843057  .00010887  00000+0  59965-3 0  9990
2 52021  97.5051  89.4298 0029032 185.8182 174.2717 15.13825718  1953
SPACEBEE-117            
1 52022U 22026Q   22088.54455389  .00009687  00000+0  53460-3 0  9996
2 52022  97.5042  89.4969 0028138 186.5397 173.5471 15.13812075  1963
SPACEBEE-116            
1 52023U 22026R   22088.54454129  .00010462  00000+0  57688-3 0  9997
2 52023  97.5026  89.4983 0028296 186.8603 173.2245 15.13815319  1960
SPACEBEE-113            
1 52024U 22026S   22088.54439024  .00010997  00000+0  60492-3 0  9995
2 52024  97.5036  89.4966 0029966 183.9610 176.1389 15.13846377  1963
SPACEBEE-112            
1 52025U 22026T   22088.54442963  .00010954  00000+0  60350-3 0  9998
2 52025  97.5039  89.4969 0028156 186.5363 173.5505 15.13839083  1961
2022-026U               
1 52026U 22026U   22087.88334362  .00012607  00000+0  69371-3 0  9997
2 52026  97.5038  88.8454 0027993 189.0783 170.9946 15.13850572  1770
2022-026V               
1 52027U 22026V   22088.54458071  .00010734  00000+0  59181-3 0  9993
2 52027  97.5029  89.4954 0028016 186.4913 173.5959 15.13821857  1874
YAOGAN-34 02            
1 52084U 22027A   22088.52814497 -.00000066  00000+0  40199-4 0  9991
2 52084  63.3976 198.3282 0012930 265.2828  94.6691 13.46729254  1656
CZ-4C R/B               
1 52085U 22027B   22088.58014536 -.00000122  00000+0 -31808-4 0  9995
2 52085  63.3983 197.1525 0102168  42.4210 318.4668 13.65321731  1688
SOYUZ-MS 21             
1 52086U 22028A   22087.65920538  .00008782  00000+0  16392-3 0  9990
2 52086  51.6451  15.4317 0004028 322.4689  97.0263 15.49602586332690
STARLINK-3537           
1 52088U 22029A   22088.58334491  .00152191  19458-4  51191-3 0  9995
2 52088  53.2156  92.0763 0009545 321.1732  83.0656 15.89741287  2389
STARLINK-3722           
1 52089U 22029B   22088.58334491  .00043304  00000+0  31204-3 0  9992
2 52089  53.2162  92.6919 0001063  50.0134  54.0311 15.73149516  2372
STARLINK-3712           
1 52090U 22029C   22088.58334491  .00025863  00000+0  18852-3 0  9998
2 52090  53.2164  92.6890 0001272  42.1581  63.6669 15.73150248  2415
STARLINK-3713           
1 52091U 22029D   22088.58334491  .00046958  00000+0  33776-3 0  9999
2 52091  53.2163  92.6907 0001358  60.7540  43.8639 15.73155913  2376
STARLINK-3716           
1 52092U 22029E   22088.58334491 -.00020181  00000+0 -13961-3 0  9996
2 52092  53.2164  92.6900 0001322  56.9767  48.2437 15.73217363  2418
STARLINK-3673           
1 52093U 22029F   22088.58334491 -.00068052  00000+0 -48483-3 0  9993
2 52093  53.2164  92.6832 0001557  44.7110  63.3809 15.73177629  2376
STARLINK-3714           
1 52094U 22029G   22088.58334491  .00043880  00000+0  31633-3 0  9993
2 52094  53.2164  92.6876 0001321  50.6217  55.7520 15.73132976  2380
STARLINK-3701           
1 52095U 22029H   22088.58334491 -.00112654  00000+0 -80550-3 0  9994
2 52095  53.2163  92.6812 0001601  61.0878  48.0283 15.73300773  2417
STARLINK-3717           
1 52096U 22029J   22088.58334491 -.00877780  00000+0 -55844-2 0  9990
2 52096  53.2173  92.3171 0001081  73.0321 216.9160 15.78097050  2429
STARLINK-3676           
1 52097U 22029K   22088.58334491  .00149762  19162-4  51071-3 0  9994
2 52097  53.2153  92.0912 0009003 321.3468  75.0979 15.89486021  2380
STARLINK-3665           
1 52098U 22029L   22088.58334491 -.00076855  00000+0 -54707-3 0  9994
2 52098  53.2163  92.6824 0001208  51.5026  57.1407 15.73247898  2377
STARLINK-3662           
1 52099U 22029M   22088.58334491  .00155380  19806-4  52424-3 0  9997
2 52099  53.2150  92.0804 0009018 325.9668  75.5251 15.89680627  2428
STARLINK-3702           
1 52100U 22029N   22088.58334491 -.00006561  00000+0 -42452-4 0  9990
2 52100  53.2164  92.6799 0001345  59.7019  50.0878 15.73155463  2388
STARLINK-3703           
1 52101U 22029P   22088.58334491 -.00029949  00000+0 -21010-3 0  9992
2 52101  53.2162  92.6735 0001056  54.1885  58.4856 15.73159720  2373
